{
  "type": "FeatureCollection",
  "features": [
    {
      "type": "Feature",
      "properties": {
        "norad_id": 34721,
        "name": "COSMOS 2251 DEB",
        "group": "cosmos-2251-debris",
        "lat": -22.02849513479843,
        "lon": 170.58055369517015,
        "alt_km": 883.0107712538766,
        "timestamp": "2025-12-02T13:52:17.656285+00:00",
        "meta_object_name": "COSMOS 2251 DEB",
        "meta_object_id": "1993-036YP",
        "meta_epoch": "2025-12-02T07:48:06.027264",
        "meta_mean_motion": 13.96762831,
        "meta_eccentricity": 0.02239697,
        "meta_inclination": 73.9234,
        "meta_ra_of_asc_node": 344.3187,
        "meta_arg_of_pericenter": 285.1168,
        "meta_mean_anomaly": 89.0422,
        "meta_ephemeris_type": 0,
        "meta_classification_type": "U",
        "meta_norad_cat_id": 34721,
        "meta_element_set_no": 999,
        "meta_rev_at_epoch": 85004,
        "meta_bstar": 0.0021289066,
        "meta_mean_motion_dot": 3.628e-05,
        "meta_mean_motion_ddot": 0,
        "tle_line1": "1 34721U 93036YP  25336.32506976  .00003628  00000+0  21289-2 0  9997",
        "tle_line2": "2 34721  73.9234 344.3187 0223969 285.1168  89.0422 13.96762831850047"
      },
      "geometry": {
        "type": "Point",
        "coordinates": [
          170.58055369517015,
          -22.02849513479843
        ]
      }
    },
    {
      "type": "Feature",
      "properties": {
        "norad_id": 34722,
        "name": "COSMOS 2251 DEB",
        "group": "cosmos-2251-debris",
        "lat": -54.5350876782561,
        "lon": -161.8412024246949,
        "alt_km": 770.8802970225324,
        "timestamp": "2025-12-02T13:52:17.656295+00:00",
        "meta_object_name": "COSMOS 2251 DEB",
        "meta_object_id": "1993-036YQ",
        "meta_epoch": "2025-12-02T07:42:42.664896",
        "meta_mean_motion": 14.11877625,
        "meta_eccentricity": 0.01675192,
        "meta_inclination": 73.8719,
        "meta_ra_of_asc_node": 354.6513,
        "meta_arg_of_pericenter": 281.9998,
        "meta_mean_anomaly": 93.2183,
        "meta_ephemeris_type": 0,
        "meta_classification_type": "U",
        "meta_norad_cat_id": 34722,
        "meta_element_set_no": 999,
        "meta_rev_at_epoch": 86098,
        "meta_bstar": 0.0010591168,
        "meta_mean_motion_dot": 2.181e-05,
        "meta_mean_motion_ddot": 0,
        "tle_line1": "1 34722U 93036YQ  25336.32132714  .00002181  00000+0  10591-2 0  9990",
        "tle_line2": "2 34722  73.8719 354.6513 0167519 281.9998  93.2183 14.11877625860986"
      },
      "geometry": {
        "type": "Point",
        "coordinates": [
          -161.8412024246949,
          -54.5350876782561
        ]
      }
    },
    {
      "type": "Feature",
      "properties": {
        "norad_id": 34726,
        "name": "COSMOS 2251 DEB",
        "group": "cosmos-2251-debris",
        "lat": -28.753539756863283,
        "lon": -3.332180514480176,
        "alt_km": 730.2793139968844,
        "timestamp": "2025-12-02T13:52:17.656305+00:00",
        "meta_object_name": "COSMOS 2251 DEB",
        "meta_object_id": "1993-036YU",
        "meta_epoch": "2025-12-02T05:47:02.848416",
        "meta_mean_motion": 14.59417296,
        "meta_eccentricity": 0.00425783,
        "meta_inclination": 74.0293,
        "meta_ra_of_asc_node": 6.351,
        "meta_arg_of_pericenter": 160.2516,
        "meta_mean_anomaly": 200.031,
        "meta_ephemeris_type": 0,
        "meta_classification_type": "U",
        "meta_norad_cat_id": 34726,
        "meta_element_set_no": 999,
        "meta_rev_at_epoch": 88349,
        "meta_bstar": 0.00051339026,
        "meta_mean_motion_dot": 2.434e-05,
        "meta_mean_motion_ddot": 0,
        "tle_line1": "1 34726U 93036YU  25336.24100519  .00002434  00000+0  51339-3 0  9990",
        "tle_line2": "2 34726  74.0293   6.3510 0042578 160.2516 200.0310 14.59417296883497"
      },
      "geometry": {
        "type": "Point",
        "coordinates": [
          -3.332180514480176,
          -28.753539756863283
        ]
      }
    },
    {
      "type": "Feature",
      "properties": {
        "norad_id": 34728,
        "name": "COSMOS 2251 DEB",
        "group": "cosmos-2251-debris",
        "lat": 23.939203190876324,
        "lon": 84.20911695972966,
        "alt_km": 654.3513148787824,
        "timestamp": "2025-12-02T13:52:17.656315+00:00",
        "meta_object_name": "COSMOS 2251 DEB",
        "meta_object_id": "1993-036YW",
        "meta_epoch": "2025-11-30T13:49:42.045312",
        "meta_mean_motion": 14.70651405,
        "meta_eccentricity": 0.0040689,
        "meta_inclination": 74.0169,
        "meta_ra_of_asc_node": 275.4077,
        "meta_arg_of_pericenter": 76.4781,
        "meta_mean_anomaly": 284.0918,
        "meta_ephemeris_type": 0,
        "meta_classification_type": "U",
        "meta_norad_cat_id": 34728,
        "meta_element_set_no": 999,
        "meta_rev_at_epoch": 88621,
        "meta_bstar": 0.00075074,
        "meta_mean_motion_dot": 4.599e-05,
        "meta_mean_motion_ddot": 0,
        "tle_line1": "1 34728U 93036YW  25334.57618108  .00004599  00000+0  75074-3 0  9990",
        "tle_line2": "2 34728  74.0169 275.4077 0040689  76.4781 284.0918 14.70651405886215"
      },
      "geometry": {
        "type": "Point",
        "coordinates": [
          84.20911695972966,
          23.939203190876324
        ]
      }
    },
    {
      "type": "Feature",
      "properties": {
        "norad_id": 34729,
        "name": "COSMOS 2251 DEB",
        "group": "cosmos-2251-debris",
        "lat": 72.76690814781313,
        "lon": 131.05378431195496,
        "alt_km": 608.84151878999,
        "timestamp": "2025-12-02T13:52:17.656325+00:00",
        "meta_object_name": "COSMOS 2251 DEB",
        "meta_object_id": "1993-036YX",
        "meta_epoch": "2025-12-02T03:59:29.960736",
        "meta_mean_motion": 14.82315258,
        "meta_eccentricity": 0.00122865,
        "meta_inclination": 74.0195,
        "meta_ra_of_asc_node": 19.3666,
        "meta_arg_of_pericenter": 145.0908,
        "meta_mean_anomaly": 275.6495,
        "meta_ephemeris_type": 0,
        "meta_classification_type": "U",
        "meta_norad_cat_id": 34729,
        "meta_element_set_no": 999,
        "meta_rev_at_epoch": 88301,
        "meta_bstar": 0.0020682703,
        "meta_mean_motion_dot": 0.00016565,
        "meta_mean_motion_ddot": 0,
        "tle_line1": "1 34729U 93036YX  25336.16631899  .00016565  00000+0  20683-2 0  9991",
        "tle_line2": "2 34729  74.0195  19.3666 0012286 145.0908 275.6495 14.82315258883017"
      },
      "geometry": {
        "type": "Point",
        "coordinates": [
          131.05378431195496,
          72.76690814781313
        ]
      }
    },
    {
      "type": "Feature",
      "properties": {
        "norad_id": 34732,
        "name": "COSMOS 2251 DEB",
        "group": "cosmos-2251-debris",
        "lat": 7.983563221438537,
        "lon": -70.12556927190772,
        "alt_km": 737.6859128794331,
        "timestamp": "2025-12-02T13:52:17.656335+00:00",
        "meta_object_name": "COSMOS 2251 DEB",
        "meta_object_id": "1993-036ZA",
        "meta_epoch": "2025-12-02T02:01:16.053312",
        "meta_mean_motion": 14.47279623,
        "meta_eccentricity": 0.00404868,
        "meta_inclination": 74.044,
        "meta_ra_of_asc_node": 113.0964,
        "meta_arg_of_pericenter": 266.0706,
        "meta_mean_anomaly": 214.3828,
        "meta_ephemeris_type": 0,
        "meta_classification_type": "U",
        "meta_norad_cat_id": 34732,
        "meta_element_set_no": 999,
        "meta_rev_at_epoch": 87989,
        "meta_bstar": 0.0001843837,
        "meta_mean_motion_dot": 6.53e-06,
        "meta_mean_motion_ddot": 0,
        "tle_line1": "1 34732U 93036ZA  25336.08421358  .00000653  00000+0  18438-3 0  9990",
        "tle_line2": "2 34732  74.0440 113.0964 0040486 266.0706 214.3828 14.47279623879897"
      },
      "geometry": {
        "type": "Point",
        "coordinates": [
          -70.12556927190772,
          7.983563221438537
        ]
      }
    },
    {
      "type": "Feature",
      "properties": {
        "norad_id": 34736,
        "name": "COSMOS 2251 DEB",
        "group": "cosmos-2251-debris",
        "lat": 44.07186493764166,
        "lon": 74.45281467548288,
        "alt_km": 440.6328616339706,
        "timestamp": "2025-12-02T13:52:17.656345+00:00",
        "meta_object_name": "COSMOS 2251 DEB",
        "meta_object_id": "1993-036ZE",
        "meta_epoch": "2025-12-02T07:25:40.196064",
        "meta_mean_motion": 15.38192677,
        "meta_eccentricity": 0.00146037,
        "meta_inclination": 74.0054,
        "meta_ra_of_asc_node": 58.9093,
        "meta_arg_of_pericenter": 356.085,
        "meta_mean_anomaly": 4.0239,
        "meta_ephemeris_type": 0,
        "meta_classification_type": "U",
        "meta_norad_cat_id": 34736,
        "meta_element_set_no": 999,
        "meta_rev_at_epoch": 88287,
        "meta_bstar": 0.0090092796,
        "meta_mean_motion_dot": 0.0035629,
        "meta_mean_motion_ddot": 0,
        "tle_line1": "1 34736U 93036ZE  25336.30949301  .00356290  00000+0  90093-2 0  9999",
        "tle_line2": "2 34736  74.0054  58.9093 0014603 356.0850   4.0239 15.38192677882870"
      },
      "geometry": {
        "type": "Point",
        "coordinates": [
          74.45281467548288,
          44.07186493764166
        ]
      }
    }
  ]
}